CCSDS_OMM_VERS = 2.0
CREATION_DATE  = 
ORIGINATOR     = 

OBJECT_NAME    = ATLAS CENTAUR R/B
OBJECT_ID      = 1972-065B
CENTER_NAME    = EARTH
REF_FRAME      = TEME
TIME_SYSTEM    = UTC
MEAN_ELEMENT_THEORY = SGP/SGP4

EPOCH          = 2026-02-17T03:40:03.241920
MEAN_MOTION    = 14.77625539
ECCENTRICITY   = .00339965
INCLINATION    = 35.0016
RA_OF_ASC_NODE = 66.0992
ARG_OF_PERICENTER = 198.3993
MEAN_ANOMALY   = 161.5479

EPHEMERIS_TYPE = 0
CLASSIFICATION_TYPE = U
NORAD_CAT_ID   = 6155
ELEMENT_SET_NO = 999
REV_AT_EPOCH   = 83822
BSTAR          = .21362069E-3
MEAN_MOTION_DOT = .1545E-4
MEAN_MOTION_DDOT = 0

CCSDS_OMM_VERS = 2.0
CREATION_DATE  = 
ORIGINATOR     = 

OBJECT_NAME    = SL-8 R/B
OBJECT_ID      = 1975-112B
CENTER_NAME    = EARTH
REF_FRAME      = TEME
TIME_SYSTEM    = UTC
MEAN_ELEMENT_THEORY = SGP/SGP4

EPOCH          = 2026-02-17T04:36:00.459072
MEAN_MOTION    = 14.38192606
ECCENTRICITY   = .00150565
INCLINATION    = 74.0592
RA_OF_ASC_NODE = 56.6207
ARG_OF_PERICENTER = 157.5969
MEAN_ANOMALY   = 202.5846

EPHEMERIS_TYPE = 0
CLASSIFICATION_TYPE = U
NORAD_CAT_ID   = 8459
ELEMENT_SET_NO = 999
REV_AT_EPOCH   = 62892
BSTAR          = .67345917E-4
MEAN_MOTION_DOT = .179E-5
MEAN_MOTION_DDOT = 0

CCSDS_OMM_VERS = 2.0
CREATION_DATE  = 
ORIGINATOR     = 

OBJECT_NAME    = SL-3 R/B
OBJECT_ID      = 1977-057B
CENTER_NAME    = EARTH
REF_FRAME      = TEME
TIME_SYSTEM    = UTC
MEAN_ELEMENT_THEORY = SGP/SGP4

EPOCH          = 2026-02-17T06:07:01.110144
MEAN_MOTION    = 15.44885444
ECCENTRICITY   = .00073685
INCLINATION    = 97.5736
RA_OF_ASC_NODE = 219.2899
ARG_OF_PERICENTER = 5.9463
MEAN_ANOMALY   = 354.1872

EPHEMERIS_TYPE = 0
CLASSIFICATION_TYPE = U
NORAD_CAT_ID   = 10114
ELEMENT_SET_NO = 999
REV_AT_EPOCH   = 66517
BSTAR          = .29925188E-3
MEAN_MOTION_DOT = .13981E-3
MEAN_MOTION_DDOT = 0

CCSDS_OMM_VERS = 2.0
CREATION_DATE  = 
ORIGINATOR     = 

OBJECT_NAME    = SEASAT 1
OBJECT_ID      = 1978-064A
CENTER_NAME    = EARTH
REF_FRAME      = TEME
TIME_SYSTEM    = UTC
MEAN_ELEMENT_THEORY = SGP/SGP4

EPOCH          = 2026-02-17T00:30:15.849792
MEAN_MOTION    = 14.46143736
ECCENTRICITY   = .0001771
INCLINATION    = 108.0157
RA_OF_ASC_NODE = 82.1251
ARG_OF_PERICENTER = 291.9576
MEAN_ANOMALY   = 68.1381

EPHEMERIS_TYPE = 0
CLASSIFICATION_TYPE = U
NORAD_CAT_ID   = 10967
ELEMENT_SET_NO = 999
REV_AT_EPOCH   = 50352
BSTAR          = .12101384E-3
MEAN_MOTION_DOT = .295E-5
MEAN_MOTION_DDOT = 0

CCSDS_OMM_VERS = 2.0
CREATION_DATE  = 
ORIGINATOR     = 

OBJECT_NAME    = SL-14 R/B
OBJECT_ID      = 1979-011B
CENTER_NAME    = EARTH
REF_FRAME      = TEME
TIME_SYSTEM    = UTC
MEAN_ELEMENT_THEORY = SGP/SGP4

EPOCH          = 2026-02-17T06:11:39.852096
MEAN_MOTION    = 14.91883434
ECCENTRICITY   = .0017447
INCLINATION    = 82.5239
RA_OF_ASC_NODE = 115.9592
ARG_OF_PERICENTER = 123.1533
MEAN_ANOMALY   = 237.1364

EPHEMERIS_TYPE = 0
CLASSIFICATION_TYPE = U
NORAD_CAT_ID   = 11267
ELEMENT_SET_NO = 999
REV_AT_EPOCH   = 52573
BSTAR          = .5789786E-4
MEAN_MOTION_DOT = .612E-5
MEAN_MOTION_DDOT = 0

CCSDS_OMM_VERS = 2.0
CREATION_DATE  = 
ORIGINATOR     = 

OBJECT_NAME    = SL-8 R/B
OBJECT_ID      = 1979-089B
CENTER_NAME    = EARTH
REF_FRAME      = TEME
TIME_SYSTEM    = UTC
MEAN_ELEMENT_THEORY = SGP/SGP4

EPOCH          = 2026-02-17T06:49:31.781568
MEAN_MOTION    = 14.42337923
ECCENTRICITY   = .00168157
INCLINATION    = 74.0692
RA_OF_ASC_NODE = 128.8167
ARG_OF_PERICENTER = 303.6591
MEAN_ANOMALY   = 56.2961

EPHEMERIS_TYPE = 0
CLASSIFICATION_TYPE = U
NORAD_CAT_ID   = 11574
ELEMENT_SET_NO = 999
REV_AT_EPOCH   = 43316
BSTAR          = .91030677E-4
MEAN_MOTION_DOT = .275E-5
MEAN_MOTION_DDOT = 0

CCSDS_OMM_VERS = 2.0
CREATION_DATE  = 
ORIGINATOR     = 

OBJECT_NAME    = SL-14 R/B
OBJECT_ID      = 1980-005B
CENTER_NAME    = EARTH
REF_FRAME      = TEME
TIME_SYSTEM    = UTC
MEAN_ELEMENT_THEORY = SGP/SGP4

EPOCH          = 2026-02-17T06:11:04.784064
MEAN_MOTION    = 14.90903867
ECCENTRICITY   = .00144266
INCLINATION    = 82.5173
RA_OF_ASC_NODE = 326.6125
ARG_OF_PERICENTER = 228.0339
MEAN_ANOMALY   = 131.9652

EPHEMERIS_TYPE = 0
CLASSIFICATION_TYPE = U
NORAD_CAT_ID   = 11672
ELEMENT_SET_NO = 999
REV_AT_EPOCH   = 47344
BSTAR          = .65113037E-4
MEAN_MOTION_DOT = .668E-5
MEAN_MOTION_DDOT = 0

CCSDS_OMM_VERS = 2.0
CREATION_DATE  = 
ORIGINATOR     = 

OBJECT_NAME    = SL-8 R/B
OBJECT_ID      = 1981-003B
CENTER_NAME    = EARTH
REF_FRAME      = TEME
TIME_SYSTEM    = UTC
MEAN_ELEMENT_THEORY = SGP/SGP4

EPOCH          = 2026-02-17T04:47:53.155392
MEAN_MOTION    = 15.10213374
ECCENTRICITY   = .02625544
INCLINATION    = 82.9400
RA_OF_ASC_NODE = 308.9587
ARG_OF_PERICENTER = 250.0248
MEAN_ANOMALY   = 107.2536

EPHEMERIS_TYPE = 0
CLASSIFICATION_TYPE = U
NORAD_CAT_ID   = 12139
ELEMENT_SET_NO = 999
REV_AT_EPOCH   = 31158
BSTAR          = .44871705E-3
MEAN_MOTION_DOT = .17036E-3
MEAN_MOTION_DDOT = 0

CCSDS_OMM_VERS = 2.0
CREATION_DATE  = 
ORIGINATOR     = 

OBJECT_NAME    = SL-3 R/B
OBJECT_ID      = 1981-046B
CENTER_NAME    = EARTH
REF_FRAME      = TEME
TIME_SYSTEM    = UTC
MEAN_ELEMENT_THEORY = SGP/SGP4

EPOCH          = 2026-02-17T05:02:06.745056
MEAN_MOTION    = 15.41420904
ECCENTRICITY   = .0020796
INCLINATION    = 81.2342
RA_OF_ASC_NODE = 314.3220
ARG_OF_PERICENTER = 89.8041
MEAN_ANOMALY   = 270.5584

EPHEMERIS_TYPE = 0
CLASSIFICATION_TYPE = U
NORAD_CAT_ID   = 12465
ELEMENT_SET_NO = 999
REV_AT_EPOCH   = 43527
BSTAR          = .35823243E-3
MEAN_MOTION_DOT = .15132E-3
MEAN_MOTION_DDOT = 0

CCSDS_OMM_VERS = 2.0
CREATION_DATE  = 
ORIGINATOR     = 

OBJECT_NAME    = SL-3 R/B
OBJECT_ID      = 1981-103B
CENTER_NAME    = EARTH
REF_FRAME      = TEME
TIME_SYSTEM    = UTC
MEAN_ELEMENT_THEORY = SGP/SGP4

EPOCH          = 2026-02-17T06:00:06.374592
MEAN_MOTION    = 15.21121104
ECCENTRICITY   = .00132433
INCLINATION    = 81.1557
RA_OF_ASC_NODE = 237.4084
ARG_OF_PERICENTER = 358.3522
MEAN_ANOMALY   = 1.7663

EPHEMERIS_TYPE = 0
CLASSIFICATION_TYPE = U
NORAD_CAT_ID   = 12904
ELEMENT_SET_NO = 999
REV_AT_EPOCH   = 97012
BSTAR          = .27567125E-3
MEAN_MOTION_DOT = .6172E-4
MEAN_MOTION_DDOT = 0

CCSDS_OMM_VERS = 2.0
CREATION_DATE  = 
ORIGINATOR     = 

OBJECT_NAME    = SL-3 R/B
OBJECT_ID      = 1982-013B
CENTER_NAME    = EARTH
REF_FRAME      = TEME
TIME_SYSTEM    = UTC
MEAN_ELEMENT_THEORY = SGP/SGP4

EPOCH          = 2026-02-17T06:24:19.094688
MEAN_MOTION    = 15.21782360
ECCENTRICITY   = .0021705
INCLINATION    = 81.1754
RA_OF_ASC_NODE = 184.6977
ARG_OF_PERICENTER = 247.8060
MEAN_ANOMALY   = 112.0869

EPHEMERIS_TYPE = 0
CLASSIFICATION_TYPE = U
NORAD_CAT_ID   = 13068
ELEMENT_SET_NO = 999
REV_AT_EPOCH   = 40124
BSTAR          = .25156475E-3
MEAN_MOTION_DOT = .5767E-4
MEAN_MOTION_DDOT = 0

CCSDS_OMM_VERS = 2.0
CREATION_DATE  = 
ORIGINATOR     = 

OBJECT_NAME    = SL-3 R/B
OBJECT_ID      = 1982-039B
CENTER_NAME    = EARTH
REF_FRAME      = TEME
TIME_SYSTEM    = UTC
MEAN_ELEMENT_THEORY = SGP/SGP4

EPOCH          = 2026-02-17T05:56:06.409824
MEAN_MOTION    = 15.09961798
ECCENTRICITY   = .00300416
INCLINATION    = 81.1592
RA_OF_ASC_NODE = 239.5269
ARG_OF_PERICENTER = 31.2694
MEAN_ANOMALY   = 329.0310

EPHEMERIS_TYPE = 0
CLASSIFICATION_TYPE = U
NORAD_CAT_ID   = 13154
ELEMENT_SET_NO = 999
REV_AT_EPOCH   = 37855
BSTAR          = .16153333E-3
MEAN_MOTION_DOT = .2672E-4
MEAN_MOTION_DDOT = 0

