ATLAS CENTAUR R/B       
1 06155U 72065B   26048.15281530  .00001545  00000+0  21362-3 0  9993
2 06155  35.0016  66.0992 0033996 198.3993 161.5479 14.77625539838223
SL-8 R/B                
1 08459U 75112B   26048.19167198  .00000179  00000+0  67346-4 0  9990
2 08459  74.0592  56.6207 0015056 157.5969 202.5846 14.38192606628924
SL-3 R/B                
1 10114U 77057B   26048.25487396  .00013981  00000+0  29925-3 0  9998
2 10114  97.5736 219.2899 0007368   5.9463 354.1872 15.44885444665179
SEASAT 1                
1 10967U 78064A   26048.02101678  .00000295  00000+0  12101-3 0  9996
2 10967 108.0157  82.1251 0001771 291.9576  68.1381 14.46143736503522
SL-14 R/B               
1 11267U 79011B   26048.25810014  .00000612  00000+0  57898-4 0  9995
2 11267  82.5239 115.9592 0017447 123.1533 237.1364 14.91883434525734
SL-8 R/B                
1 11574U 79089B   26048.28439562  .00000275  00000+0  91031-4 0  9991
2 11574  74.0692 128.8167 0016815 303.6591  56.2961 14.42337923433163
SL-14 R/B               
1 11672U 80005B   26048.25769426  .00000668  00000+0  65113-4 0  9990
2 11672  82.5173 326.6125 0014426 228.0339 131.9652 14.90903867473440
SL-8 R/B                
1 12139U 81003B   26048.19992078  .00017036  00000+0  44872-3 0  9997
2 12139  82.9400 308.9587 0262554 250.0248 107.2536 15.10213374311585
SL-3 R/B                
1 12465U 81046B   26048.20980029  .00015132  00000+0  35823-3 0  9992
2 12465  81.2342 314.3220 0020796  89.8041 270.5584 15.41420904435271
SL-3 R/B                
1 12904U 81103B   26048.25007378  .00006172  00000+0  27567-3 0  9996
2 12904  81.1557 237.4084 0013243 358.3522   1.7663 15.21121104970124
SL-3 R/B                
1 13068U 82013B   26048.26688767  .00005767  00000+0  25156-3 0  9998
2 13068  81.1754 184.6977 0021705 247.8060 112.0869 15.21782360401243
SL-3 R/B                
1 13154U 82039B   26048.24729641  .00002672  00000+0  16153-3 0  9996
2 13154  81.1592 239.5269 0030041  31.2694 329.0310 15.09961798378552
